LEGION 1                
1 59625U 24081A   26195.93521212  .00001930  00000+0  10149-3 0  9990
2 59625  97.5012 273.4979 0007701 270.8634  89.1717 15.16842607121747
LEGION 2                
1 59626U 24081B   26195.89962548  .00002116  00000+0  11096-3 0  9996
2 59626  97.5014 273.5595 0010186 234.4417 125.5867 15.16821712121746
LEGION 3                
1 60452U 24146A   26195.61154150  .00001621  00000+0  97435-4 0  9991
2 60452  45.0019 243.5171 0008270 330.9950  29.0469 15.15653480106181
LEGION 4                
1 60453U 24146B   26195.80902400  .00001933  00000+0  11348-3 0  9996
2 60453  45.0030 334.3256 0008945 111.3803 248.8031 15.15679876105064
LEGION 5                
1 62900U 25025A   26195.28192324  .00002084  00000+0  11994-3 0  9995
2 62900  45.0000 156.1117 0008331 298.1691  61.8346 15.16070913 78603
LEGION 6                
1 62901U 25025B   26195.34684687  .00001466  00000+0  89337-4 0  9991
2 62901  45.0016  64.9097 0010830 272.2859  87.6780 15.15684469 79751
